     2.11           N: GPS NAV DATA                         RINEX VERSION / TYPE
teqc  2016Apr1      IGN                 20190603 01:23:03UTCPGM / RUN BY / DATE
    18                                                      LEAP SECONDS
    6.5193D-09  2.2352D-08 -5.9605D-08 -1.1921D-07          ION ALPHA
    8.6016D+04  9.8304D+04 -6.5536D+04 -5.2429D+05          ION BETA
   -1.862645149231D-09-5.329070518201D-15   233472     2056 DELTA-UTC: A0,A1,T,W
                                                            END OF HEADER
10 19  6  2 13 59 44.0 2.839136868715D-05-1.148237060988D-11 0.000000000000D+00
    0.000000000000D+00 2.509375000000D+01 4.778056168075D-09 2.466379248973D+00
    1.367181539536D-06 4.567772964947D-03 5.641952157021D-06 5.153652410507D+03
    5.038400000000D+04-6.519258022308D-08-2.064219878358D+00-4.470348358154D-08
    9.626573767152D-01 2.705937500000D+02-2.692193471133D+00-8.089622679541D-09
    4.335894893140D-10 1.000000000000D+00 2.056000000000D+03 0.000000000000D+00
    2.000000000000D+00 0.000000000000D+00 1.862645149231D-09 0.000000000000D+00
    4.866000000000D+04
30 19  6  2 13 59 44.0-1.162192784250D-04-7.275957614183D-12 0.000000000000D+00
    1.400000000000D+01 9.709375000000D+01 4.746626203200D-09-2.342960118402D+00
    4.909932613373D-06 4.086680593900D-03 1.155026257038D-05 5.153591924667D+03
    5.038400000000D+04-1.676380634308D-08 7.530662957768D-02-8.009374141693D-08
    9.413802338882D-01 1.511562500000D+02-2.959223367943D+00-8.013905095083D-09
    5.785955395354D-11 1.000000000000D+00 2.056000000000D+03 0.000000000000D+00
    2.000000000000D+00 0.000000000000D+00 3.725290298462D-09 1.400000000000D+01
    4.884000000000D+04
18 19  6  2 13 59 44.0 5.858670920134D-05 3.183231456205D-12 0.000000000000D+00
    1.800000000000D+01-6.368750000000D+01 4.138029508396D-09-2.001994947514D+00
   -3.244727849960D-06 1.539517124183D-02 1.213699579239D-05 5.153703121185D+03
    5.038400000000D+04 3.278255462646D-07 3.125041748498D+00 8.381903171539D-08
    9.546421465744D-01 1.389687500000D+02 1.392105833927D+00-7.528527879119D-09
    2.553677799502D-10 1.000000000000D+00 2.056000000000D+03 0.000000000000D+00
    2.000000000000D+00 0.000000000000D+00-5.587935447693D-09 1.800000000000D+01
    4.996800000000D+04 4.000000000000D+00
 9 19  6  2 14  0  0.0 3.995895385742D-04-7.389644451905D-12 0.000000000000D+00
    1.300000000000D+01-3.421875000000D+01 4.895203904892D-09 7.427576723698D-01
   -1.801177859306D-06 1.210434362292D-03 7.309019565582D-06 5.153660749435D+03
    5.040000000000D+04-1.117587089539D-08-1.028393704474D+00-2.421438694000D-08
    9.522336377475D-01 2.304687500000D+02 1.760794184557D+00-8.197484315269D-09
   -4.800199947595D-10 1.000000000000D+00 2.056000000000D+03 0.000000000000D+00
    2.000000000000D+00 0.000000000000D+00 1.396983861923D-09 1.300000000000D+01
    4.323000000000D+04 4.000000000000D+00
 2 19  6  2 14  0  0.0-2.278611063957D-04-8.981260180008D-12 0.000000000000D+00
    8.200000000000D+01-4.981250000000D+01 4.311608167215D-09-1.461627403700D+00
   -2.462416887283D-06 1.886990049388D-02 1.160986721516D-05 5.153724924088D+03
    5.040000000000D+04 1.713633537292D-07 3.111439160227D+00 4.824250936508D-07
    9.552160917615D-01 1.539375000000D+02-1.738385421931D+00-7.856041521377D-09
    1.410773050075D-10 1.000000000000D+00 2.056000000000D+03 0.000000000000D+00
    2.000000000000D+00 0.000000000000D+00-2.048909664154D-08 8.200000000000D+01
    4.326000000000D+04 4.000000000000D+00
 5 19  6  2 14  0  0.0 7.115304470062D-07-1.136868377216D-13 0.000000000000D+00
    1.300000000000D+01 2.987500000000D+01 5.061639409027D-09 1.226884085492D+00
    1.642853021622D-06 5.659123067744D-03 5.876645445824D-06 5.153691917419D+03
    5.040000000000D+04-6.519258022308D-08-2.087931869852D+00 4.097819328308D-08
    9.495330280677D-01 2.624375000000D+02 7.096506819937D-01-8.358919611125D-09
    3.785871982478D-10 1.000000000000D+00 2.056000000000D+03 0.000000000000D+00
    2.000000000000D+00 0.000000000000D+00-1.117587089539D-08 1.300000000000D+01
    4.326000000000D+04 4.000000000000D+00
12 19  6  2 14  0  0.0 2.368637360632D-04-3.524291969370D-12 0.000000000000D+00
    1.500000000000D+01 6.562500000000D+01 4.385896975928D-09-3.116213946362D+00
    3.406777977943D-06 7.633149274625D-03 8.624047040939D-07 5.153637390137D+03
    5.040000000000D+04 1.117587089539D-07 1.147277619301D+00-1.937150955200D-07
    9.825833815704D-01 3.704687500000D+02 1.091219607917D+00-8.190341160585D-09
    1.350056235261D-10 1.000000000000D+00 2.056000000000D+03 0.000000000000D+00
    2.000000000000D+00 0.000000000000D+00-1.210719347000D-08 1.500000000000D+01
    4.326000000000D+04 4.000000000000D+00
16 19  6  2 14  0  0.0-4.487717524171D-05-2.955857780762D-12 0.000000000000D+00
    1.500000000000D+01 6.615625000000D+01 4.551261006861D-09 1.318143640694D+00
    3.650784492493D-06 1.077650103252D-02 1.382082700729D-06 5.153579566956D+03
    5.040000000000D+04-7.264316082001D-08 1.166194491562D+00 1.471489667892D-07
    9.829152547771D-01 3.667187500000D+02 5.810752304014D-01-8.476067347941D-09
    6.000249934494D-11 1.000000000000D+00 2.056000000000D+03 0.000000000000D+00
    2.000000000000D+00 0.000000000000D+00-1.071020960808D-08 1.500000000000D+01
    4.326000000000D+04 4.000000000000D+00
21 19  6  2 14  0  0.0-1.808851957321D-04 7.275957614183D-12 0.000000000000D+00
    1.200000000000D+01-5.656250000000D+01 4.174102439550D-09 2.700528215748D+00
   -2.864748239517D-06 2.455143909901D-02 1.239404082298D-05 5.153736122131D+03
    5.040000000000D+04 2.607703208923D-07 3.115860996894D+00-3.725290298462D-09
    9.489708769261D-01 1.268125000000D+02-1.438822693518D+00-7.364235321389D-09
    1.578637185147D-10 1.000000000000D+00 2.056000000000D+03 0.000000000000D+00
    2.000000000000D+00 0.000000000000D+00-1.024454832077D-08 1.200000000000D+01
    4.326000000000D+04 4.000000000000D+00
23 19  6  2 14  0  0.0-1.835501752794D-04 1.705302565824D-12 0.000000000000D+00
    8.000000000000D+00-2.859375000000D+01 5.171286833425D-09-9.549060745509D-01
   -1.199543476105D-06 1.328369148541D-02 7.351860404015D-06 5.153568960190D+03
    5.040000000000D+04 1.899898052216D-07-1.033560668225D+00 2.253800630569D-07
    9.430410657657D-01 2.255312500000D+02-2.253954589342D+00-8.367134239012D-09
   -4.603763193788D-10 1.000000000000D+00 2.056000000000D+03 0.000000000000D+00
    2.000000000000D+00 0.000000000000D+00-2.048909664154D-08 8.000000000000D+00
    4.326000000000D+04 4.000000000000D+00
25 19  6  2 14  0  0.0-7.621282711625D-04-3.410605131648D-12 0.000000000000D+00
    1.600000000000D+01 7.656250000000D+01 4.594834250433D-09 2.820943535164D+00
    3.790482878685D-06 8.427376742475D-03 1.158565282822D-06 5.153706642151D+03
    5.040000000000D+04 3.725290298462D-09 1.082846722101D+00-1.471489667892D-07
    9.700594086510D-01 3.601250000000D+02 9.026956181758D-01-8.232485773220D-09
    1.810789712374D-10 1.000000000000D+00 2.056000000000D+03 0.000000000000D+00
    2.000000000000D+00 0.000000000000D+00 6.053596735001D-09 1.600000000000D+01
    4.326000000000D+04 4.000000000000D+00
26 19  6  2 14  0  0.0 2.169264480472D-04 9.549694368616D-12 0.000000000000D+00
    1.200000000000D+01 8.928125000000D+01 5.193073455211D-09 2.231252949053D+00
    4.678964614868D-06 3.714717109688D-03 1.437962055206D-06 5.153613056183D+03
    5.040000000000D+04-1.005828380585D-07 1.054148741526D+00 7.078051567078D-08
    9.513733673080D-01 3.484687500000D+02 1.724785404007D-01-8.655360530508D-09
    2.475103097979D-10 1.000000000000D+00 2.056000000000D+03 0.000000000000D+00
    2.000000000000D+00 0.000000000000D+00 7.450580596924D-09 1.200000000000D+01
    4.326000000000D+04 4.000000000000D+00
31 19  6  2 14  0  0.0 3.389548510313D-05-2.614797267597D-12 0.000000000000D+00
    1.300000000000D+01 1.228125000000D+02 4.235176412097D-09-2.707649891138D+00
    6.282702088356D-06 9.193763486110D-03 1.152418553829D-05 5.153634040833D+03
    5.040000000000D+04-1.713633537292D-07 6.130477585284D-02-4.656612873077D-08
    9.604769397427D-01 1.603125000000D+02 5.994685725580D-03-7.708892534888D-09
    4.035882396416D-11 1.000000000000D+00 2.056000000000D+03 0.000000000000D+00
    2.000000000000D+00 0.000000000000D+00-1.350417733192D-08 1.300000000000D+01
    4.326000000000D+04 4.000000000000D+00
20 19  6  2 14  0  0.0 5.251304246485D-04 2.273736754432D-13 0.000000000000D+00
    4.500000000000D+01 3.521875000000D+01 5.428440402046D-09-2.117388633850D+00
    2.030283212662D-06 4.425659659319D-03 6.098300218582D-06 5.153681341171D+03
    5.040000000000D+04-4.284083843231D-08-2.182966763111D+00 6.705522537231D-08
    9.305146775685D-01 2.469375000000D+02 2.367389750211D+00-8.449994833345D-09
    5.500229106620D-10 1.000000000000D+00 2.056000000000D+03 0.000000000000D+00
    2.000000000000D+00 0.000000000000D+00-8.847564458847D-09 4.500000000000D+01
    4.386000000000D+04
27 19  6  2 14  0  0.0-1.474064774811D-04-9.777068044059D-12 0.000000000000D+00
    2.000000000000D+01-1.279375000000D+02 4.308750905342D-09 4.081595759304D-01
   -6.526708602905D-06 7.133737672120D-03 4.343688488007D-06 5.153643899918D+03
    5.040000000000D+04 5.401670932770D-08 2.125091421262D+00 1.098960638046D-07
    9.784951150948D-01 3.006250000000D+02 4.971072626728D-01-8.248557871259D-09
   -5.232360805973D-10 1.000000000000D+00 2.056000000000D+03 0.000000000000D+00
    2.000000000000D+00 0.000000000000D+00 1.396983861923D-09 2.000000000000D+01
    4.321800000000D+04 4.000000000000D+00
